NORAD_CAT_ID,OBJECT_NAME,OBJECT_TYPE,EPOCH,MEAN_MOTION,ECCENTRICITY,INCLINATION,RA_OF_ASC_NODE,ARG_OF_PERICENTER,MEAN_ANOMALY,BSTAR,MEAN_MOTION_DOT,MEAN_MOTION_DDOT,TLE_LINE0,TLE_LINE1,TLE_LINE2,SEMIMAJOR_AXIS,PERIOD,APOGEE,PERIGEE,DECAYED
54054.0,STARLINK-5163,PAYLOAD,2023-03-16 20:17:06,15.08844516,4.32e-05,53.2164,192.2567,120.3923,239.7112,0.00014144,1.964e-05,0.0,0 STARLINK-5163,1 54054U 22136D   23075.84521755  .00001964  00000-0  14144-3 0  9993,2 54054  53.2164 192.2567 0000432 120.3923 239.7112 15.08844516 22946,6917.867,95.437,540.03,539.433,0.0
54054.0,STARLINK-5163,PAYLOAD,2023-03-17 07:24:50,15.08811625,7.13e-05,53.2159,190.176,82.1699,277.9374,-0.00043815,-7.248e-05,0.0,0 STARLINK-5163,1 54054U 22136D   23076.30891669 -.00007248  00000-0 -43815-3 0  9999,2 54054  53.2159 190.1760 0000713  82.1699 277.9374 15.08811625 23017,6917.967,95.439,540.325,539.339,0.0
54054.0,STARLINK-5163,PAYLOAD,2023-03-17 13:46:23,15.08824591,8.15e-05,53.2157,188.9857,90.1609,269.9477,7.4526e-05,8.98e-06,0.0,0 STARLINK-5163,1 54054U 22136D   23076.57387761  .00000898  00000-0  74526-4 0  9997,2 54054  53.2157 188.9857 0000815  90.1609 269.9477 15.08824591 23055,6917.927,95.439,540.356,539.229,0.0
54054.0,STARLINK-5163,PAYLOAD,2023-03-18 00:54:05,15.08850851,0.0001232,53.2152,186.9057,84.9018,275.2115,0.0013701,0.00021591,0.0,0 STARLINK-5163,1 54054U 22136D   23077.03755906  .00021591  00000-0  13701-2 0  9998,2 54054  53.2152 186.9057 0001232  84.9018 275.2115 15.08850851 23124,6917.847,95.437,540.565,538.86,0.0
54054.0,STARLINK-5163,PAYLOAD,2023-03-18 16:47:55,15.08892201,0.0001267,53.2158,183.9313,88.7711,271.3426,0.0018893,0.00029951,0.0,0 STARLINK-5163,1 54054U 22136D   23077.69994468  .00029951  00000-0  18893-2 0  9993,2 54054  53.2158 183.9313 0001267  88.7711 271.3426 15.08892201 23220,6917.721,95.434,540.462,538.709,0.0
54054.0,STARLINK-5163,PAYLOAD,2023-03-19 13:27:56,15.08847193,0.0001537,53.2172,180.0681,84.6306,275.4861,0.001401,0.00022084,0.0,0 STARLINK-5163,1 54054U 22136D   23078.56107093  .00022084  00000-0  14010-2 0  9997,2 54054  53.2172 180.0681 0001537  84.6306 275.4861 15.08847193 23359,6917.858,95.437,540.787,538.66,0.0
54054.0,STARLINK-5163,PAYLOAD,2023-03-20 06:57:11,15.08851861,0.0002011,53.2176,176.7967,95.616,264.5061,0.0011436,0.00017965,0.0,0 STARLINK-5163,1 54054U 22136D   23079.28971221  .00017965  00000-0  11436-2 0  9990,2 54054  53.2176 176.7967 0002011  95.6160 264.5061 15.08851861 23460,6917.844,95.437,541.1,538.318,0.0
54054.0,STARLINK-5163,PAYLOAD,2023-03-20 13:18:43,15.0885676,0.0001719,53.2181,175.6071,88.2874,271.8315,0.0008233,0.00012845,0.0,0 STARLINK-5163,1 54054U 22136D   23079.55466882  .00012845  00000-0  82330-3 0  9996,2 54054  53.2181 175.6071 0001719  88.2874 271.8315 15.08856760 23022,6917.829,95.436,540.883,538.505,0.0
54054.0,STARLINK-5163,PAYLOAD,2023-03-20 22:51:02,15.08832531,0.000375,53.2185,173.8225,103.5399,256.6011,-0.00032683,-5.486e-05,0.0,0 STARLINK-5163,1 54054U 22136D   23079.95211680 -.00005486  00000-0 -32683-3 0  9995,2 54054  53.2185 173.8225 0003750 103.5399 256.6011 15.08832531 23560,6917.903,95.438,542.362,537.174,0.0
54054.0,STARLINK-5163,PAYLOAD,2023-03-21 13:09:30,15.08857092,0.0001787,53.2178,171.145,97.6759,262.4436,0.00070698,0.00010987,0.0,0 STARLINK-5163,1 54054U 22136D   23080.54826435  .00010987  00000-0  70698-3 0  9990,2 54054  53.2178 171.1450 0001787  97.6759 262.4436 15.08857092 23176,6917.828,95.436,540.929,538.457,0.0
54054.0,STARLINK-5163,PAYLOAD,2023-03-22 06:38:44,15.08825073,8.73e-05,53.2167,167.8757,90.6946,269.4146,0.00055141,8.495e-05,0.0,0 STARLINK-5163,1 54054U 22136D   23081.27690626  .00008495  00000-0  55141-3 0  9999,2 54054  53.2167 167.8757 0000873  90.6946 269.4146 15.08825073 23766,6917.926,95.438,540.395,539.187,0.0
54054.0,STARLINK-5163,PAYLOAD,2023-03-22 13:00:17,15.08850274,0.0001243,53.2169,166.6865,102.0344,258.0788,0.0023207,0.0003685,0.0,0 STARLINK-5163,1 54054U 22136D   23081.54186732  .00036850  00000-0  23207-2 0  9990,2 54054  53.2169 166.6865 0001243 102.0344 258.0788 15.08850274 23809,6917.849,95.437,540.574,538.854,0.0
54054.0,STARLINK-5163,PAYLOAD,2023-03-22 17:46:26,15.08866303,0.0001424,53.2168,165.7943,98.136,261.9794,0.0023528,0.00037383,0.0,0 STARLINK-5163,1 54054U 22136D   23081.74058487  .00037383  00000-0  23528-2 0  9995,2 54054  53.2168 165.7943 0001424  98.1360 261.9794 15.08866303 23359,6917.8,95.436,540.65,538.68,0.0
54054.0,STARLINK-5163,PAYLOAD,2023-03-23 12:51:04,15.08856583,0.0001278,53.2167,162.226,84.7742,275.3396,0.0018509,0.00029305,0.0,0 STARLINK-5163,1 54054U 22136D   23082.53546700  .00029305  00000-0  18509-2 0  9991,2 54054  53.2167 162.2260 0001278  84.7742 275.3396 15.08856583 23956,6917.83,95.437,540.579,538.811,0.0
54054.0,STARLINK-5163,PAYLOAD,2023-03-23 22:23:22,15.0886654,0.0001339,53.2176,160.4421,94.0774,266.0371,0.0015231,0.00024053,0.0,0 STARLINK-5163,1 54054U 22136D   23082.93290337  .00024053  00000-0  15231-2 0  9991,2 54054  53.2176 160.4421 0001339  94.0774 266.0371 15.08866540 23530,6917.799,95.436,540.591,538.738,0.0
54054.0,STARLINK-5163,PAYLOAD,2023-03-24 11:06:26,15.08899387,0.0001505,53.2147,158.0659,85.9072,274.2093,0.0019753,0.0003134,0.0,0 STARLINK-5163,1 54054U 22136D   23083.46280886  .00031340  00000-0  19753-2 0  9998,2 54054  53.2147 158.0659 0001505  85.9072 274.2093 15.08899387 24098,6917.699,95.434,540.605,538.523,0.0
54054.0,STARLINK-5163,PAYLOAD,2023-03-24 22:14:08,15.08877047,0.0001657,53.2165,155.981,70.0994,290.0177,0.00045051,6.896e-05,0.0,0 STARLINK-5163,1 54054U 22136D   23083.92648169  .00006896  00000-0  45051-3 0  9990,2 54054  53.2165 155.9810 0001657  70.0994 290.0177 15.08877047 23681,6917.767,95.435,540.778,538.486,0.0
54054.0,STARLINK-5163,PAYLOAD,2023-03-25 10:57:13,15.08842654,0.0001449,53.216,153.6067,52.3706,307.7418,-0.00029078,-4.913e-05,0.0,0 STARLINK-5163,1 54054U 22136D   23084.45640255 -.00004913  00000-0 -29078-3 0  9998,2 54054  53.2160 153.6067 0001449  52.3706 307.7418 15.08842654 24241,6917.872,95.437,540.74,538.735,0.0
54054.0,STARLINK-5163,PAYLOAD,2023-03-25 22:04:55,15.08819356,0.0001272,53.2158,151.5253,57.7949,302.3166,-0.00015827,-2.804e-05,0.0,0 STARLINK-5163,1 54054U 22136D   23084.92009258 -.00002804  00000-0 -15827-3 0  9996,2 54054  53.2158 151.5253 0001272  57.7949 302.3166 15.08819356 23832,6917.943,95.439,540.688,538.929,0.0
54054.0,STARLINK-5163,PAYLOAD,2023-03-26 15:34:11,15.08818188,0.0001227,53.2163,148.2481,116.2733,243.8385,0.00080139,0.00012482,0.0,0 STARLINK-5163,1 54054U 22136D   23085.64874686  .00012482  00000-0  80139-3 0  9990,2 54054  53.2163 148.2481 0001227 116.2733 243.8385 15.08818188 23942,6917.947,95.439,540.661,538.963,0.0
54054.0,STARLINK-5163,PAYLOAD,2023-03-27 10:38:50,15.08834858,0.0001175,53.2167,144.6785,102.4185,257.6939,0.00087881,0.00013724,0.0,0 STARLINK-5163,1 54054U 22136D   23086.44363574  .00013724  00000-0  87881-3 0  9999,2 54054  53.2167 144.6785 0001175 102.4185 257.6939 15.08834858 24540,6917.896,95.438,540.574,538.948,0.0
54054.0,STARLINK-5163,PAYLOAD,2023-03-27 13:49:36,15.08838664,0.0001188,53.2168,144.0831,104.7189,255.3935,0.00087033,0.0001359,0.0,0 STARLINK-5163,1 54054U 22136D   23086.57611560  .00013590  00000-0  87033-3 0  9994,2 54054  53.2168 144.0831 0001188 104.7189 255.3935 15.08838664 24089,6917.884,95.438,540.571,538.928,0.0
54054.0,STARLINK-5163,PAYLOAD,2023-03-27 20:11:08,15.08844311,0.0001133,53.2168,142.8951,97.1442,262.9679,0.00073289,0.00011397,0.0,0 STARLINK-5163,1 54054U 22136D   23086.84107544  .00011397  00000-0  73289-3 0  9997,2 54054  53.2168 142.8951 0001133  97.1442 262.9679 15.08844311 24125,6917.867,95.437,540.516,538.948,0.0
54054.0,STARLINK-5163,PAYLOAD,2023-03-28 12:05:00,15.0884669,0.000129,53.2167,139.925,81.3012,278.8126,0.00050988,7.838e-05,0.0,0 STARLINK-5163,1 54054U 22136D   23087.50347647  .00007838  00000-0  50988-3 0  9997,2 54054  53.2167 139.9250 0001290  81.3012 278.8126 15.08846690 24704,6917.86,95.437,540.617,538.833,0.0
54054.0,STARLINK-5163,PAYLOAD,2023-03-28 20:01:55,15.08844536,8.43e-05,53.2164,138.4367,101.3339,258.7748,0.00027725,4.128e-05,0.0,0 STARLINK-5163,1 54054U 22136D   23087.83467463  .00004128  00000-0  27725-3 0  9994,2 54054  53.2164 138.4367 0000843 101.3339 258.7748 15.08844536 24278,6917.867,95.437,540.315,539.148,0.0
54054.0,STARLINK-5163,PAYLOAD,2023-03-29 08:45:00,15.08846597,0.0001201,53.2169,136.0583,106.3518,253.7607,0.00030023,4.494e-05,0.0,0 STARLINK-5163,1 54054U 22136D   23088.36459426  .00004494  00000-0  30023-3 0  9994,2 54054  53.2169 136.0583 0001201 106.3518 253.7607 15.08846597 24357,6917.86,95.437,540.556,538.894,0.0
54054.0,STARLINK-5163,PAYLOAD,2023-03-29 19:52:42,15.08841708,0.0001232,53.2174,133.9767,88.9166,271.1968,0.00020067,2.907e-05,0.0,0 STARLINK-5163,1 54054U 22136D   23088.82827468  .00002907  00000-0  20067-3 0  9994,2 54054  53.2174 133.9767 0001232  88.9166 271.1968 15.08841708 24905,6917.875,95.437,540.592,538.888,0.0
54054.0,STARLINK-5163,PAYLOAD,2023-03-30 19:43:30,15.08832304,7.01e-05,53.2164,129.5174,104.2607,255.8463,-5.7339e-05,-1.2e-05,0.0,0 STARLINK-5163,1 54054U 22136D   23089.82187859 -.00001200  00000-0 -57339-4 0  9998,2 54054  53.2164 129.5174 0000701 104.2607 255.8463 15.08832304 25057,6917.904,95.438,540.254,539.284,0.0
54054.0,STARLINK-5163,PAYLOAD,2023-03-31 11:37:21,15.08860394,0.0001336,53.2163,126.5428,88.6201,271.4944,0.0011636,0.00018289,0.0,0 STARLINK-5163,1 54054U 22136D   23090.48427764  .00018289  00000-0  11636-2 0  9995,2 54054  53.2163 126.5428 0001336  88.6201 271.4944 15.08860394 25154,6917.818,95.436,540.607,538.759,0.0
54054.0,STARLINK-5163,PAYLOAD,2023-03-31 19:34:17,15.08846252,0.0001389,53.2164,125.0575,86.5829,273.5322,0.00056548,8.725e-05,0.0,0 STARLINK-5163,1 54054U 22136D   23090.81548040  .00008725  00000-0  56548-3 0  9999,2 54054  53.2164 125.0575 0001389  86.5829 273.5322 15.08846252 25209,6917.861,95.437,540.687,538.765,0.0
